NORAD_CAT_ID,OBJECT_NAME,OBJECT_TYPE,EPOCH,MEAN_MOTION,ECCENTRICITY,INCLINATION,RA_OF_ASC_NODE,ARG_OF_PERICENTER,MEAN_ANOMALY,BSTAR,MEAN_MOTION_DOT,MEAN_MOTION_DDOT,TLE_LINE0,TLE_LINE1,TLE_LINE2,SEMIMAJOR_AXIS,PERIOD,APOGEE,PERIGEE,DECAYED
54100.0,STARLINK-5185,PAYLOAD,2024-01-11 03:18:49,15.08869925,0.0001457,53.2163,273.7806,100.7757,259.3399,0.00047347,7.261e-05,0.0,0 STARLINK-5185,1 54100U 22136BB  24011.13807592  .00007261  00000-0  47347-3 0  9991,2 54100  53.2163 273.7806 0001457 100.7757 259.3399 15.08869925 68411,6917.789,95.436,540.662,538.646,0.0
54100.0,STARLINK-5185,PAYLOAD,2024-01-11 17:37:19,15.08827727,0.0001159,53.2164,271.1039,116.2413,243.8698,-0.00024241,-4.142e-05,0.0,0 STARLINK-5185,1 54100U 22136BB  24011.73425566 -.00004142  00000-0 -24241-3 0  9999,2 54100  53.2164 271.1039 0001159 116.2413 243.8698 15.08827727 68506,6917.918,95.438,540.585,538.981,0.0
54100.0,STARLINK-5185,PAYLOAD,2024-01-11 22:23:29,15.0882457,0.0001557,53.2164,270.2121,112.5866,247.5291,-0.00028428,-4.808e-05,0.0,0 STARLINK-5185,1 54100U 22136BB  24011.93297865 -.00004808  00000-0 -28428-3 0  9990,2 54100  53.2164 270.2121 0001557 112.5866 247.5291 15.08824570 68065,6917.928,95.439,540.87,538.715,0.0
54100.0,STARLINK-5185,PAYLOAD,2024-01-12 03:09:38,15.08823735,0.0001649,53.2162,269.3193,119.1725,240.9433,-0.00027153,-4.605e-05,0.0,0 STARLINK-5185,1 54100U 22136BB  24012.13170003 -.00004605  00000-0 -27153-3 0  9996,2 54100  53.2162 269.3193 0001649 119.1725 240.9433 15.08823735 68090,6917.93,95.439,540.936,538.654,0.0
54100.0,STARLINK-5185,PAYLOAD,2024-01-12 17:28:06,15.08859024,0.0002687,53.2156,266.6441,122.1135,238.0118,-0.00098966,-0.00016014,0.0,0 STARLINK-5185,1 54100U 22136BB  24012.72784906 -.00016014  00000-0 -98966-3 0  9991,2 54100  53.2156 266.6441 0002687 122.1135 238.0118 15.08859024 68651,6917.822,95.436,541.546,537.828,0.0
54100.0,STARLINK-5185,PAYLOAD,2024-01-12 22:14:16,15.08837235,0.0001465,53.2156,265.7525,106.095,254.0203,-8.8411e-05,-1.695e-05,0.0,0 STARLINK-5185,1 54100U 22136BB  24012.92657991 -.00001695  00000-0 -88411-4 0  9990,2 54100  53.2156 265.7525 0001465 106.0950 254.0203 15.08837235 68218,6917.889,95.438,540.767,538.74,0.0
54100.0,STARLINK-5185,PAYLOAD,2024-01-13 22:05:03,15.08855876,0.000142,53.2147,261.2919,108.5903,251.5244,0.0006949,0.00010793,0.0,0 STARLINK-5185,1 54100U 22136BB  24013.92017962  .00010793  00000-0  69490-3 0  9991,2 54100  53.2147 261.2919 0001420 108.5903 251.5244 15.08855876 68838,6917.832,95.437,540.679,538.715,0.0
54100.0,STARLINK-5185,PAYLOAD,2024-01-14 18:45:04,15.08848203,0.0001433,53.2142,257.4257,92.6356,267.48,0.00021264,3.099e-05,0.0,0 STARLINK-5185,1 54100U 22136BB  24014.78130022  .00003099  00000-0  21264-3 0  9997,2 54100  53.2142 257.4257 0001433  92.6356 267.4800 15.08848203 68968,6917.855,95.437,540.712,538.729,0.0
54100.0,STARLINK-5185,PAYLOAD,2024-01-14 21:55:50,15.08847597,0.000138,53.2142,256.8312,106.1589,253.9556,0.00018491,2.657e-05,0.0,0 STARLINK-5185,1 54100U 22136BB  24014.91377929  .00002657  00000-0  18491-3 0  9998,2 54100  53.2142 256.8312 0001380 106.1589 253.9556 15.08847597 68517,6917.857,95.437,540.677,538.768,0.0
54100.0,STARLINK-5185,PAYLOAD,2024-01-14 23:31:13,15.08843928,0.000134,53.2144,256.5337,101.6041,258.5101,0.00010379,1.364e-05,0.0,0 STARLINK-5185,1 54100U 22136BB  24014.98002003  .00001364  00000-0  10379-3 0  9994,2 54100  53.2144 256.5337 0001340 101.6041 258.5101 15.08843928 68524,6917.868,95.437,540.66,538.806,0.0
54100.0,STARLINK-5185,PAYLOAD,2024-01-15 18:35:51,15.08839117,0.0001323,53.2142,252.9664,88.7464,271.368,-1.3722e-05,-5.06e-06,0.0,0 STARLINK-5185,1 54100U 22136BB  24015.77490402 -.00000506  00000-0 -13722-4 0  9991,2 54100  53.2142 252.9664 0001323  88.7464 271.3680 15.08839117 69116,6917.883,95.438,540.663,538.833,0.0
54100.0,STARLINK-5185,PAYLOAD,2024-01-15 20:11:14,15.08838708,0.0001317,53.2142,252.6689,92.1477,267.9666,-2.7378e-05,-7.24e-06,0.0,0 STARLINK-5185,1 54100U 22136BB  24015.84114376 -.00000724  00000-0 -27378-4 0  9996,2 54100  53.2142 252.6689 0001317  92.1477 267.9666 15.08838708 68654,6917.884,95.438,540.66,538.838,0.0
54100.0,STARLINK-5185,PAYLOAD,2024-01-16 00:57:23,15.08848539,0.0001483,53.2147,251.7767,78.4245,281.6914,-1.9637e-06,-3.19e-06,0.0,0 STARLINK-5185,1 54100U 22136BB  24016.03986066 -.00000319  00000-0 -19637-5 0  9991,2 54100  53.2147 251.7767 0001483  78.4245 281.6914 15.08848539 69158,6917.854,95.437,540.745,538.693,0.0
54100.0,STARLINK-5185,PAYLOAD,2024-01-16 20:02:02,15.08836774,0.0001433,53.2145,248.2082,78.3882,281.7271,0.00011944,1.613e-05,0.0,0 STARLINK-5185,1 54100U 22136BB  24016.83474843  .00001613  00000-0  11944-3 0  9991,2 54100  53.2145 248.2082 0001433  78.3882 281.7271 15.08836774 69276,6917.89,95.438,540.747,538.764,0.0
54100.0,STARLINK-5185,PAYLOAD,2024-01-16 21:37:25,15.08837849,0.0001467,53.2144,247.9109,76.6948,283.4208,0.0001299,1.78e-05,0.0,0 STARLINK-5185,1 54100U 22136BB  24016.90098810  .00001780  00000-0  12990-3 0  9992,2 54100  53.2144 247.9109 0001467  76.6948 283.4208 15.08837849 68814,6917.887,95.438,540.767,538.737,0.0
54100.0,STARLINK-5185,PAYLOAD,2024-01-17 21:28:12,15.08837192,0.0001348,53.2148,243.4508,78.429,281.6853,6.1313e-05,6.88e-06,0.0,0 STARLINK-5185,1 54100U 22136BB  24017.89459182  .00000688  00000-0  61313-4 0  9994,2 54100  53.2148 243.4508 0001348  78.4290 281.6853 15.08837192 68963,6917.889,95.438,540.687,538.821,0.0
54100.0,STARLINK-5185,PAYLOAD,2024-01-18 14:57:26,15.08849505,0.0001315,53.2146,240.179,88.0271,272.0872,-1.9305e-05,-5.95e-06,0.0,0 STARLINK-5185,1 54100U 22136BB  24018.62322811 -.00000595  00000-0 -19305-4 0  9997,2 54100  53.2146 240.1790 0001315  88.0271 272.0872 15.08849505 69077,6917.851,95.437,540.626,538.807,0.0
54100.0,STARLINK-5185,PAYLOAD,2024-01-18 19:43:36,15.08846636,0.0001212,53.2147,239.2871,86.0368,274.0762,7.6162e-05,9.25e-06,0.0,0 STARLINK-5185,1 54100U 22136BB  24018.82194617  .00000925  00000-0  76162-4 0  9999,2 54100  53.2147 239.2871 0001212  86.0368 274.0762 15.08846636 69104,6917.86,95.437,540.564,538.887,0.0
54100.0,STARLINK-5185,PAYLOAD,2024-01-19 00:29:45,15.08832866,0.0001386,53.2147,238.3941,94.2429,265.8721,0.00036481,5.522e-05,0.0,0 STARLINK-5185,1 54100U 22136BB  24019.02066822  .00005522  00000-0  36481-3 0  9995,2 54100  53.2147 238.3941 0001386  94.2429 265.8721 15.08832866 69601,6917.902,95.438,540.726,538.808,0.0
54100.0,STARLINK-5185,PAYLOAD,2024-01-19 21:09:46,15.0883775,0.0001343,53.2158,234.5257,104.1735,255.9407,6.9014e-05,8.11e-06,0.0,0 STARLINK-5185,1 54100U 22136BB  24019.88179080  .00000811  00000-0  69014-4 0  9995,2 54100  53.2158 234.5257 0001343 104.1735 255.9407 15.08837750 69265,6917.887,95.438,540.681,538.823,0.0
54100.0,STARLINK-5185,PAYLOAD,2024-01-20 13:03:38,15.08837727,0.0001515,53.2165,231.5547,105.5643,254.5516,-1.0721e-05,-4.59e-06,0.0,0 STARLINK-5185,1 54100U 22136BB  24020.54419533 -.00000459  00000-0 -10721-4 0  9991,2 54100  53.2165 231.5547 0001515 105.5643 254.5516 15.08837727 69367,6917.887,95.438,540.8,538.704,0.0
54100.0,STARLINK-5185,PAYLOAD,2024-01-20 19:25:11,15.08837127,0.0001292,53.2151,230.3641,92.3784,267.7356,-2.4616e-05,-6.8e-06,0.0,0 STARLINK-5185,1 54100U 22136BB  24020.80915666 -.00000680  00000-0 -24616-4 0  9992,2 54100  53.2151 230.3641 0001292  92.3784 267.7356 15.08837127 69873,6917.889,95.438,540.648,538.86,0.0
54100.0,STARLINK-5185,PAYLOAD,2024-01-21 22:26:44,15.08842148,0.0001317,53.215,225.3094,96.5529,263.5613,0.00011363,1.521e-05,0.0,0 STARLINK-5185,1 54100U 22136BB  24021.93523190  .00001521  00000-0  11363-3 0  9991,2 54100  53.2150 225.3094 0001317  96.5529 263.5613 15.08842148 69575,6917.874,95.437,540.65,538.828,0.0
54100.0,STARLINK-5185,PAYLOAD,2024-01-22 20:42:08,15.08841575,0.0001291,53.2148,221.1461,98.926,261.1879,0.000145,2.021e-05,0.0,0 STARLINK-5185,1 54100U 22136BB  24022.86259269  .00002021  00000-0  14500-3 0  9999,2 54100  53.2148 221.1461 0001291  98.9260 261.1879 15.08841575 69710,6917.876,95.437,540.634,538.847,0.0
54100.0,STARLINK-5185,PAYLOAD,2024-01-23 03:03:40,15.08842307,0.0001286,53.2147,219.9556,106.2199,253.8935,0.00014829,2.073e-05,0.0,0 STARLINK-5185,1 54100U 22136BB  24023.12755218  .00002073  00000-0  14829-3 0  9995,2 54100  53.2147 219.9556 0001286 106.2199 253.8935 15.08842307 70220,6917.873,95.437,540.628,538.849,0.0
54100.0,STARLINK-5185,PAYLOAD,2024-01-23 04:39:03,15.08841094,0.000132,53.2137,219.6604,82.7722,277.342,0.00011406,1.528e-05,0.0,0 STARLINK-5185,1 54100U 22136BB  24023.19379566  .00001528  00000-0  11406-3 0  9992,2 54100  53.2137 219.6604 0001320  82.7722 277.3420 15.08841094 69768,6917.877,95.437,540.655,538.829,0.0
54100.0,STARLINK-5185,PAYLOAD,2024-01-23 22:08:17,15.08847174,0.0001349,53.2139,216.3881,91.0534,269.0613,9.254e-05,1.185e-05,0.0,0 STARLINK-5185,1 54100U 22136BB  24023.92242900  .00001185  00000-0  92540-4 0  9992,2 54100  53.2139 216.3881 0001349  91.0534 269.0613 15.08847174 69875,6917.858,95.437,540.657,538.79,0.0
54100.0,STARLINK-5185,PAYLOAD,2024-01-24 02:54:27,15.0884016,0.0001659,53.214,215.4961,67.9414,292.1754,2.4712e-06,-2.49e-06,0.0,0 STARLINK-5185,1 54100U 22136BB  24024.12115319 -.00000249  00000-0  24712-5 0  9996,2 54100  53.2140 215.4961 0001659  67.9414 292.1754 15.08840160 70377,6917.88,95.438,540.893,538.597,0.0
54100.0,STARLINK-5185,PAYLOAD,2024-01-24 14:02:09,15.08842373,0.0001411,53.2136,213.4139,95.0589,265.0564,5.0182e-05,5.11e-06,0.0,0 STARLINK-5185,1 54100U 22136BB  24024.58483171  .00000511  00000-0  50182-4 0  9990,2 54100  53.2136 213.4139 0001411  95.0589 265.0564 15.08842373 69978,6917.873,95.437,540.714,538.762,0.0
54100.0,STARLINK-5185,PAYLOAD,2024-01-24 20:23:41,15.08844395,0.0001351,53.214,212.2246,90.8415,269.2732,9.4642e-05,1.219e-05,0.0,0 STARLINK-5185,1 54100U 22136BB  24024.84979086  .00001219  00000-0  94642-4 0  9999,2 54100  53.2140 212.2246 0001351  90.8415 269.2732 15.08844395 70019,6917.867,95.437,540.667,538.797,0.0
